[{"OBJECT_NAME":"GPS BIIF-11","OBJECT_ID":"2015-062A","EPOCH":"2026-04-04T23:40:27.177888","MEAN_MOTION":2.00567188,"ECCENTRICITY":0.0111285,"INCLINATION":56.9136,"RA_OF_ASC_NODE":33.6315,"ARG_OF_PERICENTER":231.593,"MEAN_ANOMALY":127.395,"EPHEMERIS_TYPE":0,"CLASSIFICATION_TYPE":"U","NORAD_CAT_ID":41019,"ELEMENT_SET_NO":999,"REV_AT_EPOCH":7636,"BSTAR":0,"MEAN_MOTION_DOT":-8.4e-7,"MEAN_MOTION_DDOT":0},{"OBJECT_NAME":"ELEKTRO-L 2","OBJECT_ID":"2015-074A","EPOCH":"2026-04-05T17:48:37.070208","MEAN_MOTION":1.00272421,"ECCENTRICITY":0.000256,"INCLINATION":6.5132,"RA_OF_ASC_NODE":71.4026,"ARG_OF_PERICENTER":259.6171,"MEAN_ANOMALY":115.6962,"EPHEMERIS_TYPE":0,"CLASSIFICATION_TYPE":"U","NORAD_CAT_ID":41105,"ELEMENT_SET_NO":999,"REV_AT_EPOCH":3778,"BSTAR":0,"MEAN_MOTION_DOT":-1.13e-6,"MEAN_MOTION_DDOT":0},{"OBJECT_NAME":"GSAT0209 (GALILEO 12)","OBJECT_ID":"2015-079A","EPOCH":"2026-04-02T22:56:35.738880","MEAN_MOTION":1.70474345,"ECCENTRICITY":0.00055143,"INCLINATION":55.7797,"RA_OF_ASC_NODE":103.3236,"ARG_OF_PERICENTER":325.8217,"MEAN_ANOMALY":34.1781,"EPHEMERIS_TYPE":0,"CLASSIFICATION_TYPE":"U","NORAD_CAT_ID":41174,"ELEMENT_SET_NO":999,"REV_AT_EPOCH":6349,"BSTAR":0,"MEAN_MOTION_DOT":3.2e-7,"MEAN_MOTION_DDOT":0},{"OBJECT_NAME":"GSAT0208 (GALILEO 11)","OBJECT_ID":"2015-079B","EPOCH":"2026-04-03T04:13:44.855904","MEAN_MOTION":1.70474211,"ECCENTRICITY":0.00049738,"INCLINATION":55.7782,"RA_OF_ASC_NODE":103.3145,"ARG_OF_PERICENTER":327.5574,"MEAN_ANOMALY":32.446,"EPHEMERIS_TYPE":0,"CLASSIFICATION_TYPE":"U","NORAD_CAT_ID":41175,"ELEMENT_SET_NO":999,"REV_AT_EPOCH":6391,"BSTAR":0,"MEAN_MOTION_DOT":3.1e-7,"MEAN_MOTION_DDOT":0},{"OBJECT_NAME":"GPS BIIF-12","OBJECT_ID":"2016-007A","EPOCH":"2026-04-05T01:45:21.101760","MEAN_MOTION":2.00555323,"ECCENTRICITY":0.0095997,"INCLINATION":55.4776,"RA_OF_ASC_NODE":92.3566,"ARG_OF_PERICENTER":246.7403,"MEAN_ANOMALY":112.2545,"EPHEMERIS_TYPE":0,"CLASSIFICATION_TYPE":"U","NORAD_CAT_ID":41328,"ELEMENT_SET_NO":999,"REV_AT_EPOCH":7437,"BSTAR":0,"MEAN_MOTION_DOT":3.0e-8,"MEAN_MOTION_DDOT":0},{"OBJECT_NAME":"GSAT0211 (GALILEO 14)","OBJECT_ID":"2016-030A","EPOCH":"2026-04-04T11:21:42.401088","MEAN_MOTION":1.70474141,"ECCENTRICITY":0.00028673,"INCLINATION":55.1194,"RA_OF_ASC_NODE":223.7205,"ARG_OF_PERICENTER":14.1895,"MEAN_ANOMALY":345.7766,"EPHEMERIS_TYPE":0,"CLASSIFICATION_TYPE":"U","NORAD_CAT_ID":41549,"ELEMENT_SET_NO":999,"REV_AT_EPOCH":6141,"BSTAR":0,"MEAN_MOTION_DOT":-7.0e-8,"MEAN_MOTION_DDOT":0},{"OBJECT_NAME":"GSAT0210 (GALILEO 13)","OBJECT_ID":"2016-030B","EPOCH":"2026-04-04T03:27:29.627424","MEAN_MOTION":1.70474077,"ECCENTRICITY":0.00020513,"INCLINATION":55.1189,"RA_OF_ASC_NODE":223.7276,"ARG_OF_PERICENTER":215.3594,"MEAN_ANOMALY":144.5829,"EPHEMERIS_TYPE":0,"CLASSIFICATION_TYPE":"U","NORAD_CAT_ID":41550,"ELEMENT_SET_NO":999,"REV_AT_EPOCH":6140,"BSTAR":0,"MEAN_MOTION_DOT":-8.0e-8,"MEAN_MOTION_DDOT":0},{"OBJECT_NAME":"INSAT-3DR","OBJECT_ID":"2016-054A","EPOCH":"2026-04-05T19:56:33.830304","MEAN_MOTION":1.00273903,"ECCENTRICITY":0.0012026,"INCLINATION":0.131,"RA_OF_ASC_NODE":86.7717,"ARG_OF_PERICENTER":196.6335,"MEAN_ANOMALY":283.8782,"EPHEMERIS_TYPE":0,"CLASSIFICATION_TYPE":"U","NORAD_CAT_ID":41752,"ELEMENT_SET_NO":999,"REV_AT_EPOCH":3509,"BSTAR":0,"MEAN_MOTION_DOT":-7.6e-7,"MEAN_MOTION_DDOT":0},{"OBJECT_NAME":"GSAT0207 (GALILEO 15)","OBJECT_ID":"2016-069A","EPOCH":"2026-04-03T05:58:52.924224","MEAN_MOTION":1.70474272,"ECCENTRICITY":0.00057815,"INCLINATION":55.4504,"RA_OF_ASC_NODE":103.1579,"ARG_OF_PERICENTER":313.2719,"MEAN_ANOMALY":46.7132,"EPHEMERIS_TYPE":0,"CLASSIFICATION_TYPE":"U","NORAD_CAT_ID":41859,"ELEMENT_SET_NO":999,"REV_AT_EPOCH":5812,"BSTAR":0,"MEAN_MOTION_DOT":3.0e-7,"MEAN_MOTION_DDOT":0},{"OBJECT_NAME":"GSAT0212 (GALILEO 16)","OBJECT_ID":"2016-069B","EPOCH":"2026-04-04T06:37:17.302944","MEAN_MOTION":1.70474499,"ECCENTRICITY":0.00043762,"INCLINATION":55.4482,"RA_OF_ASC_NODE":103.1246,"ARG_OF_PERICENTER":336.7977,"MEAN_ANOMALY":23.2102,"EPHEMERIS_TYPE":0,"CLASSIFICATION_TYPE":"U","NORAD_CAT_ID":41860,"ELEMENT_SET_NO":999,"REV_AT_EPOCH":5839,"BSTAR":0,"MEAN_MOTION_DOT":2.9e-7,"MEAN_MOTION_DDOT":0},{"OBJECT_NAME":"GSAT0213 (GALILEO 17)","OBJECT_ID":"2016-069C","EPOCH":"2026-03-29T04:34:53.766048","MEAN_MOTION":1.70475393,"ECCENTRICITY":0.00056724,"INCLINATION":55.4467,"RA_OF_ASC_NODE":103.3008,"ARG_OF_PERICENTER":296.7743,"MEAN_ANOMALY":63.2211,"EPHEMERIS_TYPE":0,"CLASSIFICATION_TYPE":"U","NORAD_CAT_ID":41861,"ELEMENT_SET_NO":999,"REV_AT_EPOCH":5815,"BSTAR":0,"MEAN_MOTION_DOT":4.2e-7,"MEAN_MOTION_DDOT":0},{"OBJECT_NAME":"GSAT0214 (GALILEO 18)","OBJECT_ID":"2016-069D","EPOCH":"2026-04-03T14:47:20.680512","MEAN_MOTION":1.70474615,"ECCENTRICITY":0.00048192,"INCLINATION":55.4486,"RA_OF_ASC_NODE":103.1435,"ARG_OF_PERICENTER":302.4917,"MEAN_ANOMALY":57.4928,"EPHEMERIS_TYPE":0,"CLASSIFICATION_TYPE":"U","NORAD_CAT_ID":41862,"ELEMENT_SET_NO":999,"REV_AT_EPOCH":5837,"BSTAR":0,"MEAN_MOTION_DOT":2.9e-7,"MEAN_MOTION_DDOT":0},{"OBJECT_NAME":"GOES 16","OBJECT_ID":"2016-071A","EPOCH":"2026-04-05T15:40:17.731200","MEAN_MOTION":1.00272283,"ECCENTRICITY":0.0001814,"INCLINATION":0.1757,"RA_OF_ASC_NODE":85.2897,"ARG_OF_PERICENTER":247.8363,"MEAN_ANOMALY":351.2025,"EPHEMERIS_TYPE":0,"CLASSIFICATION_TYPE":"U","NORAD_CAT_ID":41866,"ELEMENT_SET_NO":999,"REV_AT_EPOCH":3437,"BSTAR":0,"MEAN_MOTION_DOT":-8.9e-7,"MEAN_MOTION_DDOT":0},{"OBJECT_NAME":"GSAT-17","OBJECT_ID":"2017-040B","EPOCH":"2026-04-05T21:07:21.592128","MEAN_MOTION":1.00273182,"ECCENTRICITY":0.0003985,"INCLINATION":0.0692,"RA_OF_ASC_NODE":75.5043,"ARG_OF_PERICENTER":233.8699,"MEAN_ANOMALY":295.1329,"EPHEMERIS_TYPE":0,"CLASSIFICATION_TYPE":"U","NORAD_CAT_ID":42815,"ELEMENT_SET_NO":999,"REV_AT_EPOCH":3206,"BSTAR":0,"MEAN_MOTION_DOT":-2.56e-6,"MEAN_MOTION_DDOT":0},{"OBJECT_NAME":"GSAT0215 (GALILEO 19)","OBJECT_ID":"2017-079A","EPOCH":"2026-04-04T02:33:00.667872","MEAN_MOTION":1.70474759,"ECCENTRICITY":7.514e-5,"INCLINATION":55.098,"RA_OF_ASC_NODE":223.5434,"ARG_OF_PERICENTER":277.3476,"MEAN_ANOMALY":82.5997,"EPHEMERIS_TYPE":0,"CLASSIFICATION_TYPE":"U","NORAD_CAT_ID":43055,"ELEMENT_SET_NO":999,"REV_AT_EPOCH":5172,"BSTAR":0,"MEAN_MOTION_DOT":-8.0e-8,"MEAN_MOTION_DDOT":0},{"OBJECT_NAME":"GSAT0216 (GALILEO 20)","OBJECT_ID":"2017-079B","EPOCH":"2026-04-04T23:37:01.564896","MEAN_MOTION":1.70474933,"ECCENTRICITY":0.0002155,"INCLINATION":55.097,"RA_OF_ASC_NODE":223.5193,"ARG_OF_PERICENTER":296.0805,"MEAN_ANOMALY":63.8594,"EPHEMERIS_TYPE":0,"CLASSIFICATION_TYPE":"U","NORAD_CAT_ID":43056,"ELEMENT_SET_NO":999,"REV_AT_EPOCH":5175,"BSTAR":0,"MEAN_MOTION_DOT":-4.0e-8,"MEAN_MOTION_DDOT":0},{"OBJECT_NAME":"GSAT0217 (GALILEO 21)","OBJECT_ID":"2017-079C","EPOCH":"2026-04-04T00:45:33.990624","MEAN_MOTION":1.70474766,"ECCENTRICITY":0.00018882,"INCLINATION":55.0959,"RA_OF_ASC_NODE":223.5432,"ARG_OF_PERICENTER":328.5118,"MEAN_ANOMALY":31.4322,"EPHEMERIS_TYPE":0,"CLASSIFICATION_TYPE":"U","NORAD_CAT_ID":43057,"ELEMENT_SET_NO":999,"REV_AT_EPOCH":5172,"BSTAR":0,"MEAN_MOTION_DOT":-9.0e-8,"MEAN_MOTION_DDOT":0}]
